{"type": "FeatureCollection", "features": [ {"type": "Feature", "properties": {"norad_id": 34400, "name": "COSMOS 2251 DEB", "group": "cosmos-2251-debris", "lat": 22.314843262169045, "lon": 35.28449477085027, "alt_km": 412.2374647643501, "timestamp": "2025-12-10T09:57:45.092069+00:00", "meta": {"OBJECT_NAME": "COSMOS 2251 DEB", "OBJECT_ID": "1993-036QR", "EPOCH": "2025-12-09T13:44:51.088128", "MEAN_MOTION": 15.51565229, "ECCENTRICITY": 0.0005948, "INCLINATION": 73.9665, "RA_OF_ASC_NODE": 30.3656, "ARG_OF_PERICENTER": 268.7226, "MEAN_ANOMALY": 91.3306, "EPHEMERIS_TYPE": 0, "CLASSIFICATION_TYPE": "U", "NORAD_CAT_ID": 34400, "ELEMENT_SET_NO": 999, "REV_AT_EPOCH": 89925, "BSTAR": 0.0040468, "MEAN_MOTION_DOT": 0.00247678, "MEAN_MOTION_DDOT": 0}, "tle": {"line1": "1 34400U 93036QR  25343.57281352  .00247678  00000+0  40468-2 0  9999", "line2": "2 34400  73.9665  30.3656 0005948 268.7226  91.3306 15.51565229899257"}}, "geometry": {"type": "Point", "coordinates": [35.28449477085027, 22.314843262169045]}}, {"type": "Feature", "properties": {"norad_id": 34409, "name": "COSMOS 2251 DEB", "group": "cosmos-2251-debris", "lat": 1.9515690066020226, "lon": -48.18891349412965, "alt_km": 650.3751689462633, "timestamp": "2025-12-10T09:57:45.092079+00:00", "meta": {"OBJECT_NAME": "COSMOS 2251 DEB", "OBJECT_ID": "1993-036RA", "EPOCH": "2025-12-09T14:44:57.177024", "MEAN_MOTION": 14.58015689, "ECCENTRICITY": 0.0079686, "INCLINATION": 74.063, "RA_OF_ASC_NODE": 312.773, "ARG_OF_PERICENTER": 27.9278, "MEAN_ANOMALY": 94.3156, "EPHEMERIS_TYPE": 0, "CLASSIFICATION_TYPE": "U", "NORAD_CAT_ID": 34409, "ELEMENT_SET_NO": 999, "REV_AT_EPOCH": 89147, "BSTAR": 0.00044337, "MEAN_MOTION_DOT": 2.098e-05, "MEAN_MOTION_DDOT": 0}, "tle": {"line1": "1 34409U 93036RA  25343.61455066  .00002098  00000+0  44337-3 0  9993", "line2": "2 34409  74.0630 312.7730 0079686  27.9278  94.3156 14.58015689891470"}}, "geometry": {"type": "Point", "coordinates": [-48.18891349412965, 1.9515690066020226]}}, {"type": "Feature", "properties": {"norad_id": 34410, "name": "COSMOS 2251 DEB", "group": "cosmos-2251-debris", "lat": -66.79680514050581, "lon": 129.61056050443622, "alt_km": 528.9795315618976, "timestamp": "2025-12-10T09:57:45.092089+00:00", "meta": {"OBJECT_NAME": "COSMOS 2251 DEB", "OBJECT_ID": "1993-036RB", "EPOCH": "2025-12-09T18:45:14.908320", "MEAN_MOTION": 15.18456802, "ECCENTRICITY": 0.0021121, "INCLINATION": 73.7385, "RA_OF_ASC_NODE": 268.0424, "ARG_OF_PERICENTER": 109.8067, "MEAN_ANOMALY": 280.6184, "EPHEMERIS_TYPE": 0, "CLASSIFICATION_TYPE": "U", "NORAD_CAT_ID": 34410, "ELEMENT_SET_NO": 999, "REV_AT_EPOCH": 89729, "BSTAR": 0.0034496, "MEAN_MOTION_DOT": 0.00072173, "MEAN_MOTION_DDOT": 0}, "tle": {"line1": "1 34410U 93036RB  25343.78142255  .00072173  00000+0  34496-2 0  9991", "line2": "2 34410  73.7385 268.0424 0021121 109.8067 280.6184 15.18456802897295"}}, "geometry": {"type": "Point", "coordinates": [129.61056050443622, -66.79680514050581]}}, {"type": "Feature", "properties": {"norad_id": 34412, "name": "COSMOS 2251 DEB", "group": "cosmos-2251-debris", "lat": -54.98507274495564, "lon": -55.28183714682726, "alt_km": 812.5962025444978, "timestamp": "2025-12-10T09:57:45.092099+00:00", "meta": {"OBJECT_NAME": "COSMOS 2251 DEB", "OBJECT_ID": "1993-036RD", "EPOCH": "2025-12-09T22:37:06.778848", "MEAN_MOTION": 14.47082715, "ECCENTRICITY": 0.0187107, "INCLINATION": 73.949, "RA_OF_ASC_NODE": 329.8699, "ARG_OF_PERICENTER": 65.6117, "MEAN_ANOMALY": 296.4442, "EPHEMERIS_TYPE": 0, "CLASSIFICATION_TYPE": "U", "NORAD_CAT_ID": 34412, "ELEMENT_SET_NO": 999, "REV_AT_EPOCH": 87610, "BSTAR": 0.0016015, "MEAN_MOTION_DOT": 7.245e-05, "MEAN_MOTION_DDOT": 0}, "tle": {"line1": "1 34412U 93036RD  25343.94243957  .00007245  00000+0  16015-2 0  9997", "line2": "2 34412  73.9490 329.8699 0187107  65.6117 296.4442 14.47082715876106"}}, "geometry": {"type": "Point", "coordinates": [-55.28183714682726, -54.98507274495564]}}, {"type": "Feature", "properties": {"norad_id": 34413, "name": "COSMOS 2251 DEB", "group": "cosmos-2251-debris", "lat": -42.97514013549874, "lon": 104.57343020396318, "alt_km": 834.1304092238233, "timestamp": "2025-12-10T09:57:45.092109+00:00", "meta": {"OBJECT_NAME": "COSMOS 2251 DEB", "OBJECT_ID": "1993-036RE", "EPOCH": "2025-12-09T04:55:13.938816", "MEAN_MOTION": 14.29051962, "ECCENTRICITY": 0.00908663, "INCLINATION": 74.0317, "RA_OF_ASC_NODE": 271.2975, "ARG_OF_PERICENTER": 348.4182, "MEAN_ANOMALY": 134.6327, "EPHEMERIS_TYPE": 0, "CLASSIFICATION_TYPE": "U", "NORAD_CAT_ID": 34413, "ELEMENT_SET_NO": 999, "REV_AT_EPOCH": 87080, "BSTAR": 0.0021262677, "MEAN_MOTION_DOT": 5.607e-05, "MEAN_MOTION_DDOT": 0}, "tle": {"line1": "1 34413U 93036RE  25343.20502244  .00005607  00000+0  21263-2 0  9995", "line2": "2 34413  74.0317 271.2975 0090866 348.4182 134.6327 14.29051962870809"}}, "geometry": {"type": "Point", "coordinates": [104.57343020396318, -42.97514013549874]}}, {"type": "Feature", "properties": {"norad_id": 34420, "name": "COSMOS 2251 DEB", "group": "cosmos-2251-debris", "lat": -7.671614232723808, "lon": 106.2454887057248, "alt_km": 709.4225255166393, "timestamp": "2025-12-10T09:57:45.092120+00:00", "meta": {"OBJECT_NAME": "COSMOS 2251 DEB", "OBJECT_ID": "1993-036RM", "EPOCH": "2025-12-10T03:44:43.901952", "MEAN_MOTION": 14.68284786, "ECCENTRICITY": 0.010674, "INCLINATION": 74.0335, "RA_OF_ASC_NODE": 108.9565, "ARG_OF_PERICENTER": 230.692, "MEAN_ANOMALY": 191.7202, "EPHEMERIS_TYPE": 0, "CLASSIFICATION_TYPE": "U", "NORAD_CAT_ID": 34420, "ELEMENT_SET_NO": 999, "REV_AT_EPOCH": 89732, "BSTAR": 0.00038171, "MEAN_MOTION_DOT": 2.365e-05, "MEAN_MOTION_DDOT": 0}, "tle": {"line1": "1 34420U 93036RM  25344.15606368  .00002365  00000+0  38171-3 0  9995", "line2": "2 34420  74.0335 108.9565 0106740 230.6920 191.7202 14.68284786897326"}}, "geometry": {"type": "Point", "coordinates": [106.2454887057248, -7.671614232723808]}}, {"type": "Feature", "properties": {"norad_id": 34425, "name": "COSMOS 2251 DEB", "group": "cosmos-2251-debris", "lat": 47.499081395744255, "lon": -139.2508232683614, "alt_km": 671.9547535661268, "timestamp": "2025-12-10T09:57:45.092130+00:00", "meta": {"OBJECT_NAME": "COSMOS 2251 DEB", "OBJECT_ID": "1993-036RS", "EPOCH": "2025-12-10T04:26:35.081664", "MEAN_MOTION": 14.62104652, "ECCENTRICITY": 0.0024992, "INCLINATION": 74.02, "RA_OF_ASC_NODE": 59.4125, "ARG_OF_PERICENTER": 186.5226, "MEAN_ANOMALY": 173.5619, "EPHEMERIS_TYPE": 0, "CLASSIFICATION_TYPE": "U", "NORAD_CAT_ID": 34425, "ELEMENT_SET_NO": 999, "REV_AT_EPOCH": 88703, "BSTAR": 0.00086162, "MEAN_MOTION_DOT": 4.322e-05, "MEAN_MOTION_DDOT": 0}, "tle": {"line1": "1 34425U 93036RS  25344.18512826  .00004322  00000+0  86162-3 0  9996", "line2": "2 34425  74.0200  59.4125 0024992 186.5226 173.5619 14.62104652887034"}}, "geometry": {"type": "Point", "coordinates": [-139.2508232683614, 47.499081395744255]}}, {"type": "Feature", "properties": {"norad_id": 34429, "name": "COSMOS 2251 DEB", "group": "cosmos-2251-debris", "lat": -62.37899506129782, "lon": 26.392398016052784, "alt_km": 455.086123974369, "timestamp": "2025-12-10T09:57:45.092140+00:00", "meta": {"OBJECT_NAME": "COSMOS 2251 DEB", "OBJECT_ID": "1993-036RW", "EPOCH": "2025-12-09T18:55:19.989984", "MEAN_MOTION": 15.39922676, "ECCENTRICITY": 0.000649, "INCLINATION": 73.9711, "RA_OF_ASC_NODE": 174.4231, "ARG_OF_PERICENTER": 17.7629, "MEAN_ANOMALY": 356.5189, "EPHEMERIS_TYPE": 0, "CLASSIFICATION_TYPE": "U", "NORAD_CAT_ID": 34429, "ELEMENT_SET_NO": 999, "REV_AT_EPOCH": 89403, "BSTAR": 0.0057353, "MEAN_MOTION_DOT": 0.00235648, "MEAN_MOTION_DDOT": 0}, "tle": {"line1": "1 34429U 93036RW  25343.78842581  .00235648  00000+0  57353-2 0  9995", "line2": "2 34429  73.9711 174.4231 0006490  17.7629 356.5189 15.39922676894036"}}, "geometry": {"type": "Point", "coordinates": [26.392398016052784, -62.37899506129782]}}, {"type": "Feature", "properties": {"norad_id": 34430, "name": "COSMOS 2251 DEB", "group": "cosmos-2251-debris", "lat": 71.05336200286838, "lon": 71.2477192485315, "alt_km": 746.6631459734799, "timestamp": "2025-12-10T09:57:45.092150+00:00", "meta": {"OBJECT_NAME": "COSMOS 2251 DEB", "OBJECT_ID": "1993-036RX", "EPOCH": "2025-12-09T15:09:24.801984", "MEAN_MOTION": 14.39617534, "ECCENTRICITY": 0.0060202, "INCLINATION": 74.0523, "RA_OF_ASC_NODE": 309.0966, "ARG_OF_PERICENTER": 19.4795, "MEAN_ANOMALY": 340.864, "EPHEMERIS_TYPE": 0, "CLASSIFICATION_TYPE": "U", "NORAD_CAT_ID": 34430, "ELEMENT_SET_NO": 999, "REV_AT_EPOCH": 87910, "BSTAR": 0.00090432, "MEAN_MOTION_DOT": 2.862e-05, "MEAN_MOTION_DDOT": 0}, "tle": {"line1": "1 34430U 93036RX  25343.63153706  .00002862  00000+0  90432-3 0  9991", "line2": "2 34430  74.0523 309.0966 0060202  19.4795 340.8640 14.39617534879108"}}, "geometry": {"type": "Point", "coordinates": [71.2477192485315, 71.05336200286838]}}, {"type": "Feature", "properties": {"norad_id": 34431, "name": "COSMOS 2251 DEB", "group": "cosmos-2251-debris", "lat": 73.99747979105389, "lon": -85.19216586809021, "alt_km": 774.8397239290298, "timestamp": "2025-12-10T09:57:45.092160+00:00", "meta": {"OBJECT_NAME": "COSMOS 2251 DEB", "OBJECT_ID": "1993-036RY", "EPOCH": "2025-12-09T23:27:02.344608", "MEAN_MOTION": 14.28759324, "ECCENTRICITY": 0.0068412, "INCLINATION": 74.0746, "RA_OF_ASC_NODE": 180.2002, "ARG_OF_PERICENTER": 166.6572, "MEAN_ANOMALY": 193.6408, "EPHEMERIS_TYPE": 0, "CLASSIFICATION_TYPE": "U", "NORAD_CAT_ID": 34431, "ELEMENT_SET_NO": 999, "REV_AT_EPOCH": 87103, "BSTAR": 0.00077362, "MEAN_MOTION_DOT": 1.973e-05, "MEAN_MOTION_DDOT": 0}, "tle": {"line1": "1 34431U 93036RY  25343.97711047  .00001973  00000+0  77362-3 0  9996", "line2": "2 34431  74.0746 180.2002 0068412 166.6572 193.6408 14.28759324871037"}}, "geometry": {"type": "Point", "coordinates": [-85.19216586809021, 73.99747979105389]}}]}